{"type": "FeatureCollection", "features": [ {"type": "Feature", "properties": {"norad_id": 29868, "name": "FENGYUN 1C DEB", "group": "fengyun-1c-debris", "lat": 1.8944779972090715, "lon": 27.979283276713183, "alt_km": 503.9283118435951, "timestamp": "2025-12-08T10:52:03.219453+00:00", "meta": {"OBJECT_NAME": "FENGYUN 1C DEB", "OBJECT_ID": "1999-025FN", "EPOCH": "2025-12-07T20:28:16.594176", "MEAN_MOTION": 14.7833016, "ECCENTRICITY": 0.01974489, "INCLINATION": 97.9499, "RA_OF_ASC_NODE": 27.6515, "ARG_OF_PERICENTER": 19.8341, "MEAN_ANOMALY": 32.371, "EPHEMERIS_TYPE": 0, "CLASSIFICATION_TYPE": "U", "NORAD_CAT_ID": 29868, "ELEMENT_SET_NO": 999, "REV_AT_EPOCH": 223, "BSTAR": 0.00077578036, "MEAN_MOTION_DOT": 7.775e-05, "MEAN_MOTION_DDOT": 0}, "tle": {"line1": "1 29868U 99025FN  25341.85296984  .00007775  00000+0  77578-3 0  9996", "line2": "2 29868  97.9499  27.6515 0197448  19.8341  32.3710 14.78330160  2233"}}, "geometry": {"type": "Point", "coordinates": [27.979283276713183, 1.8944779972090715]}}, {"type": "Feature", "properties": {"norad_id": 29869, "name": "FENGYUN 1C DEB", "group": "fengyun-1c-debris", "lat": -26.151528148629982, "lon": -82.98556634554541, "alt_km": 733.7591840579425, "timestamp": "2025-12-08T10:52:03.219464+00:00", "meta": {"OBJECT_NAME": "FENGYUN 1C DEB", "OBJECT_ID": "1999-025FP", "EPOCH": "2025-12-07T18:25:25.061952", "MEAN_MOTION": 14.36863921, "ECCENTRICITY": 0.00878718, "INCLINATION": 98.8727, "RA_OF_ASC_NODE": 271.9095, "ARG_OF_PERICENTER": 25.5826, "MEAN_ANOMALY": 6.6641, "EPHEMERIS_TYPE": 0, "CLASSIFICATION_TYPE": "U", "NORAD_CAT_ID": 29869, "ELEMENT_SET_NO": 999, "REV_AT_EPOCH": 98749, "BSTAR": 0.00077676405, "MEAN_MOTION_DOT": 2.353e-05, "MEAN_MOTION_DDOT": 0}, "tle": {"line1": "1 29869U 99025FP  25341.76765118  .00002353  00000+0  77676-3 0  9993", "line2": "2 29869  98.8727 271.9095 0087871  25.5826   6.6641 14.36863921987492"}}, "geometry": {"type": "Point", "coordinates": [-82.98556634554541, -26.151528148629982]}}, {"type": "Feature", "properties": {"norad_id": 29870, "name": "FENGYUN 1C DEB", "group": "fengyun-1c-debris", "lat": 54.42866574684454, "lon": 145.50775722642382, "alt_km": 774.7694374212242, "timestamp": "2025-12-08T10:52:03.219475+00:00", "meta": {"OBJECT_NAME": "FENGYUN 1C DEB", "OBJECT_ID": "1999-025FQ", "EPOCH": "2025-12-07T21:08:17.375424", "MEAN_MOTION": 14.28978254, "ECCENTRICITY": 0.01195746, "INCLINATION": 98.4593, "RA_OF_ASC_NODE": 312.9422, "ARG_OF_PERICENTER": 206.7713, "MEAN_ANOMALY": 218.0276, "EPHEMERIS_TYPE": 0, "CLASSIFICATION_TYPE": "U", "NORAD_CAT_ID": 29870, "ELEMENT_SET_NO": 999, "REV_AT_EPOCH": 98524, "BSTAR": 9.739327e-05, "MEAN_MOTION_DOT": 2.22e-06, "MEAN_MOTION_DDOT": 0}, "tle": {"line1": "1 29870U 99025FQ  25341.88075666  .00000222  00000+0  97393-4 0  9992", "line2": "2 29870  98.4593 312.9422 0119574 206.7713 218.0276 14.28978254985246"}}, "geometry": {"type": "Point", "coordinates": [145.50775722642382, 54.42866574684454]}}, {"type": "Feature", "properties": {"norad_id": 29871, "name": "FENGYUN 1C DEB", "group": "fengyun-1c-debris", "lat": -46.00152794166721, "lon": 105.94162257596174, "alt_km": 768.3845314439177, "timestamp": "2025-12-08T10:52:03.219485+00:00", "meta": {"OBJECT_NAME": "FENGYUN 1C DEB", "OBJECT_ID": "1999-025FR", "EPOCH": "2025-12-07T20:48:01.224576", "MEAN_MOTION": 14.42595914, "ECCENTRICITY": 0.00584746, "INCLINATION": 98.9727, "RA_OF_ASC_NODE": 294.7424, "ARG_OF_PERICENTER": 121.7052, "MEAN_ANOMALY": 302.0415, "EPHEMERIS_TYPE": 0, "CLASSIFICATION_TYPE": "U", "NORAD_CAT_ID": 29871, "ELEMENT_SET_NO": 999, "REV_AT_EPOCH": 98631, "BSTAR": 0.0015525177, "MEAN_MOTION_DOT": 5.217e-05, "MEAN_MOTION_DDOT": 0}, "tle": {"line1": "1 29871U 99025FR  25341.86668084  .00005217  00000+0  15525-2 0  9997", "line2": "2 29871  98.9727 294.7424 0058474 121.7052 302.0415 14.42595914986315"}}, "geometry": {"type": "Point", "coordinates": [105.94162257596174, -46.00152794166721]}}, {"type": "Feature", "properties": {"norad_id": 29872, "name": "FENGYUN 1C DEB", "group": "fengyun-1c-debris", "lat": 76.14487806098684, "lon": -144.94507901809237, "alt_km": 870.8445987852037, "timestamp": "2025-12-08T10:52:03.219495+00:00", "meta": {"OBJECT_NAME": "FENGYUN 1C DEB", "OBJECT_ID": "1999-025FS", "EPOCH": "2025-12-07T07:42:00.558720", "MEAN_MOTION": 14.38911723, "ECCENTRICITY": 0.02356676, "INCLINATION": 98.3453, "RA_OF_ASC_NODE": 357.4302, "ARG_OF_PERICENTER": 329.9321, "MEAN_ANOMALY": 28.8508, "EPHEMERIS_TYPE": 0, "CLASSIFICATION_TYPE": "U", "NORAD_CAT_ID": 29872, "ELEMENT_SET_NO": 999, "REV_AT_EPOCH": 98514, "BSTAR": 0.001055644, "MEAN_MOTION_DOT": 4.45e-05, "MEAN_MOTION_DDOT": 0}, "tle": {"line1": "1 29872U 99025FS  25341.32083980  .00004450  00000+0  10556-2 0  9992", "line2": "2 29872  98.3453 357.4302 0235667 329.9321  28.8508 14.38911723985141"}}, "geometry": {"type": "Point", "coordinates": [-144.94507901809237, 76.14487806098684]}}, {"type": "Feature", "properties": {"norad_id": 29873, "name": "FENGYUN 1C DEB", "group": "fengyun-1c-debris", "lat": 79.33514554678224, "lon": 140.30974615088647, "alt_km": 931.6852932827032, "timestamp": "2025-12-08T10:52:03.219506+00:00", "meta": {"OBJECT_NAME": "FENGYUN 1C DEB", "OBJECT_ID": "1999-025FT", "EPOCH": "2025-12-07T14:06:48.259584", "MEAN_MOTION": 13.98143858, "ECCENTRICITY": 0.00924779, "INCLINATION": 99.4427, "RA_OF_ASC_NODE": 201.5143, "ARG_OF_PERICENTER": 213.0831, "MEAN_ANOMALY": 202.5746, "EPHEMERIS_TYPE": 0, "CLASSIFICATION_TYPE": "U", "NORAD_CAT_ID": 29873, "ELEMENT_SET_NO": 999, "REV_AT_EPOCH": 96243, "BSTAR": 0.00026734162, "MEAN_MOTION_DOT": 3.47e-06, "MEAN_MOTION_DDOT": 0}, "tle": {"line1": "1 29873U 99025FT  25341.58805856  .00000347  00000+0  26734-3 0  9992", "line2": "2 29873  99.4427 201.5143 0092477 213.0831 202.5746 13.98143858962439"}}, "geometry": {"type": "Point", "coordinates": [140.30974615088647, 79.33514554678224]}}, {"type": "Feature", "properties": {"norad_id": 29874, "name": "FENGYUN 1C DEB", "group": "fengyun-1c-debris", "lat": -12.916643722318318, "lon": 57.56949316011042, "alt_km": 875.0009061429937, "timestamp": "2025-12-08T10:52:03.219516+00:00", "meta": {"OBJECT_NAME": "FENGYUN 1C DEB", "OBJECT_ID": "1999-025FU", "EPOCH": "2025-12-07T15:45:23.882688", "MEAN_MOTION": 14.28690471, "ECCENTRICITY": 0.01054174, "INCLINATION": 98.3796, "RA_OF_ASC_NODE": 238.7416, "ARG_OF_PERICENTER": 5.476, "MEAN_ANOMALY": 54.4533, "EPHEMERIS_TYPE": 0, "CLASSIFICATION_TYPE": "U", "NORAD_CAT_ID": 29874, "ELEMENT_SET_NO": 999, "REV_AT_EPOCH": 96775, "BSTAR": 0.0047783169, "MEAN_MOTION_DOT": 0.00012733, "MEAN_MOTION_DDOT": 0}, "tle": {"line1": "1 29874U 99025FU  25341.65652642  .00012733  00000+0  47783-2 0  9992", "line2": "2 29874  98.3796 238.7416 0105417   5.4760  54.4533 14.28690471967755"}}, "geometry": {"type": "Point", "coordinates": [57.56949316011042, -12.916643722318318]}}, {"type": "Feature", "properties": {"norad_id": 29875, "name": "FENGYUN 1C DEB", "group": "fengyun-1c-debris", "lat": 78.0047723552518, "lon": -101.83990264534444, "alt_km": 746.3755658126574, "timestamp": "2025-12-08T10:52:03.219526+00:00", "meta": {"OBJECT_NAME": "FENGYUN 1C DEB", "OBJECT_ID": "1999-025FV", "EPOCH": "2025-12-07T21:46:57.133344", "MEAN_MOTION": 14.24877349, "ECCENTRICITY": 0.00832677, "INCLINATION": 98.4058, "RA_OF_ASC_NODE": 33.5361, "ARG_OF_PERICENTER": 77.2652, "MEAN_ANOMALY": 105.8468, "EPHEMERIS_TYPE": 0, "CLASSIFICATION_TYPE": "U", "NORAD_CAT_ID": 29875, "ELEMENT_SET_NO": 999, "REV_AT_EPOCH": 98253, "BSTAR": 5.1511843e-05, "MEAN_MOTION_DOT": 8.4e-07, "MEAN_MOTION_DDOT": 0}, "tle": {"line1": "1 29875U 99025FV  25341.90760571  .00000084  00000+0  51512-4 0  9995", "line2": "2 29875  98.4058  33.5361 0083267  77.2652 105.8468 14.24877349982531"}}, "geometry": {"type": "Point", "coordinates": [-101.83990264534444, 78.0047723552518]}}, {"type": "Feature", "properties": {"norad_id": 29876, "name": "FENGYUN 1C DEB", "group": "fengyun-1c-debris", "lat": 62.97806919793183, "lon": 16.56999539678952, "alt_km": 781.4175454523865, "timestamp": "2025-12-08T10:52:03.219537+00:00", "meta": {"OBJECT_NAME": "FENGYUN 1C DEB", "OBJECT_ID": "1999-025FW", "EPOCH": "2025-12-07T23:18:09.081216", "MEAN_MOTION": 14.20292667, "ECCENTRICITY": 0.00617754, "INCLINATION": 98.3338, "RA_OF_ASC_NODE": 32.8187, "ARG_OF_PERICENTER": 31.2014, "MEAN_ANOMALY": 90.1933, "EPHEMERIS_TYPE": 0, "CLASSIFICATION_TYPE": "U", "NORAD_CAT_ID": 29876, "ELEMENT_SET_NO": 999, "REV_AT_EPOCH": 97849, "BSTAR": 0.00021799316, "MEAN_MOTION_DOT": 4.35e-06, "MEAN_MOTION_DDOT": 0}, "tle": {"line1": "1 29876U 99025FW  25341.97093844  .00000435  00000+0  21799-3 0  9998", "line2": "2 29876  98.3338  32.8187 0061775  31.2014  90.1933 14.20292667978495"}}, "geometry": {"type": "Point", "coordinates": [16.56999539678952, 62.97806919793183]}}, {"type": "Feature", "properties": {"norad_id": 29877, "name": "FENGYUN 1C DEB", "group": "fengyun-1c-debris", "lat": -34.70419099831825, "lon": 161.91153753153426, "alt_km": 783.8622426851434, "timestamp": "2025-12-08T10:52:03.219546+00:00", "meta": {"OBJECT_NAME": "FENGYUN 1C DEB", "OBJECT_ID": "1999-025FX", "EPOCH": "2025-12-08T00:00:13.137984", "MEAN_MOTION": 14.2477504, "ECCENTRICITY": 0.00456925, "INCLINATION": 98.537, "RA_OF_ASC_NODE": 347.4424, "ARG_OF_PERICENTER": 232.4213, "MEAN_ANOMALY": 182.2962, "EPHEMERIS_TYPE": 0, "CLASSIFICATION_TYPE": "U", "NORAD_CAT_ID": 29877, "ELEMENT_SET_NO": 999, "REV_AT_EPOCH": 97906, "BSTAR": 0.00073057207, "MEAN_MOTION_DOT": 1.678e-05, "MEAN_MOTION_DDOT": 0}, "tle": {"line1": "1 29877U 99025FX  25342.00015206  .00001678  00000+0  73057-3 0  9994", "line2": "2 29877  98.5370 347.4424 0045692 232.4213 182.2962 14.24775040979063"}}, "geometry": {"type": "Point", "coordinates": [161.91153753153426, -34.70419099831825]}}]}